0 THOR ABLESTAR DEB
1 00544U 61015GD  13282.49050797  .00000005  00000-0  97125-4 0  3495
2 00544 066.8765 037.3396 0184802 131.5886 302.2970 13.53918960574429
0 THOR ABLESTAR DEB
1 00544U 61015GD  13286.77649431  .00000066  00000-0  17899-3 0  3518
2 00544 066.8770 027.5361 0184475 128.6543 312.7241 13.53919853575005
0 THOR ABLESTAR DEB
1 00544U 61015GD  13289.43926042  .00000092  00000-0  21360-3 0  3528
2 00544 066.8769 021.4457 0184259 126.8268 331.3907 13.53921397575367
0 THOR ABLESTAR DEB
1 00544U 61015GD  13291.50615876  .00000134  00000-0  26848-3 0  3533
2 00544 066.8767 016.7182 0184140 125.4010 325.7379 13.53922517575642
0 THOR ABLESTAR DEB
1 00544U 61015GD  13293.72050067  .00000184  00000-0  33515-3 0  3549
2 00544 066.8765 011.6529 0183949 123.8794 318.7498 13.53924144575941
0 THOR ABLESTAR DEB
1 00544U 61015GD  13296.15941056  .00000214  00000-0  37515-3 0  3555
2 00544 066.8763 006.0741 0183754 122.2062 326.3494 13.53926268576275
